[
    {
        "Altitude(m)": 622200.1501991408,
        "Argument of Periapsis(deg)": 0.0,
        "Eccentricity": 0.0,
        "Inclination(deg)": 60.0,
        "Latitude(deg)": -52.16265690247268,
        "Longitude(deg)": -97.63927429939213,
        "Mean Anomaly(deg)": 294.5455,
        "RAAN(deg)": 50.0,
        "Satellite Name": "Test1 238",
        "Satellite Number": 238,
        "Semi-Major Axis(m)": 6980739.136638005,
        "Time(s)": 0
    },
    {
        "Altitude(m)": 622058.3181817182,
        "Argument of Periapsis(deg)": 0.00010418945913296404,
        "Eccentricity": 0.0,
        "Inclination(deg)": 60.0,
        "Latitude(deg)": -51.79940683463828,
        "Longitude(deg)": -96.87121405282647,
        "Mean Anomaly(deg)": 295.1656061454619,
        "RAAN(deg)": 49.99957995086026,
        "Satellite Name": "Test1 238",
        "Satellite Number": 238,
        "Semi-Major Axis(m)": 6980739.136638005,
        "Time(s)": 10
    }
]